{
  "type": "FeatureCollection",
  "features": [
    {
      "type": "Feature",
      "properties": {
        "norad_id": 37562,
        "name": "IRIDIUM 33 DEB",
        "group": "iridium-33-debris",
        "lat": 30.882216377121267,
        "lon": 40.451476199041785,
        "alt_km": 687.9743623995473,
        "timestamp": "2025-12-24T22:42:22.419059+00:00",
        "meta_object_name": "IRIDIUM 33 DEB",
        "meta_object_id": "1997-051XX",
        "meta_epoch": "2025-12-23T20:59:31.951104",
        "meta_mean_motion": 14.56567158,
        "meta_eccentricity": 0.0026368,
        "meta_inclination": 86.3729,
        "meta_ra_of_asc_node": 38.7447,
        "meta_arg_of_pericenter": 72.8673,
        "meta_mean_anomaly": 103.8436,
        "meta_ephemeris_type": 0,
        "meta_classification_type": "U",
        "meta_norad_cat_id": 37562,
        "meta_element_set_no": 999,
        "meta_rev_at_epoch": 86490,
        "meta_bstar": 0.001046,
        "meta_mean_motion_dot": 4.7e-05,
        "meta_mean_motion_ddot": 0,
        "tle_line1": "1 37562U 97051XX  25357.87467536  .00004700  00000+0  10460-2 0  9996",
        "tle_line2": "2 37562  86.3729  38.7447 0026368  72.8673 103.8436 14.56567158864901"
      },
      "geometry": {
        "type": "Point",
        "coordinates": [
          40.451476199041785,
          30.882216377121267
        ]
      }
    },
    {
      "type": "Feature",
      "properties": {
        "norad_id": 37565,
        "name": "IRIDIUM 33 DEB",
        "group": "iridium-33-debris",
        "lat": -46.928815822913485,
        "lon": 0.34323404019666853,
        "alt_km": 728.2064779527682,
        "timestamp": "2025-12-24T22:42:22.419070+00:00",
        "meta_object_name": "IRIDIUM 33 DEB",
        "meta_object_id": "1997-051YA",
        "meta_epoch": "2025-12-22T08:03:11.421504",
        "meta_mean_motion": 14.51554431,
        "meta_eccentricity": 0.00147764,
        "meta_inclination": 86.3487,
        "meta_ra_of_asc_node": 5.397,
        "meta_arg_of_pericenter": 56.1153,
        "meta_mean_anomaly": 304.1456,
        "meta_ephemeris_type": 0,
        "meta_classification_type": "U",
        "meta_norad_cat_id": 37565,
        "meta_element_set_no": 999,
        "meta_rev_at_epoch": 65976,
        "meta_bstar": 0.00051713633,
        "meta_mean_motion_dot": 2.092e-05,
        "meta_mean_motion_ddot": 0,
        "tle_line1": "1 37565U 97051YA  25356.33554886  .00002092  00000+0  51714-3 0  9994",
        "tle_line2": "2 37565  86.3487   5.3970 0014776  56.1153 304.1456 14.51554431659763"
      },
      "geometry": {
        "type": "Point",
        "coordinates": [
          0.34323404019666853,
          -46.928815822913485
        ]
      }
    },
    {
      "type": "Feature",
      "properties": {
        "norad_id": 38017,
        "name": "IRIDIUM 33 DEB",
        "group": "iridium-33-debris",
        "lat": -61.87199073213205,
        "lon": 154.04675759422386,
        "alt_km": 771.2161731106098,
        "timestamp": "2025-12-24T22:42:22.419080+00:00",
        "meta_object_name": "IRIDIUM 33 DEB",
        "meta_object_id": "1997-051YD",
        "meta_epoch": "2025-12-21T17:06:48.866976",
        "meta_mean_motion": 14.4927867,
        "meta_eccentricity": 0.00916411,
        "meta_inclination": 86.3414,
        "meta_ra_of_asc_node": 162.3271,
        "meta_arg_of_pericenter": 73.0367,
        "meta_mean_anomaly": 288.0856,
        "meta_ephemeris_type": 0,
        "meta_classification_type": "U",
        "meta_norad_cat_id": 38017,
        "meta_element_set_no": 999,
        "meta_rev_at_epoch": 61532,
        "meta_bstar": 0.0034116417,
        "meta_mean_motion_dot": 0.00013762,
        "meta_mean_motion_ddot": 0,
        "tle_line1": "1 38017U 97051YD  25355.71306559  .00013762  00000+0  34116-2 0  9992",
        "tle_line2": "2 38017  86.3414 162.3271 0091641  73.0367 288.0856 14.49278670615328"
      },
      "geometry": {
        "type": "Point",
        "coordinates": [
          154.04675759422386,
          -61.87199073213205
        ]
      }
    },
    {
      "type": "Feature",
      "properties": {
        "norad_id": 38022,
        "name": "IRIDIUM 33 DEB",
        "group": "iridium-33-debris",
        "lat": 84.5629627807104,
        "lon": 147.8063715132227,
        "alt_km": 742.5793336379074,
        "timestamp": "2025-12-24T22:42:22.419090+00:00",
        "meta_object_name": "IRIDIUM 33 DEB",
        "meta_object_id": "1997-051YJ",
        "meta_epoch": "2025-12-23T07:57:08.773056",
        "meta_mean_motion": 14.41313849,
        "meta_eccentricity": 0.00453843,
        "meta_inclination": 86.2683,
        "meta_ra_of_asc_node": 11.8042,
        "meta_arg_of_pericenter": 16.2864,
        "meta_mean_anomaly": 343.9781,
        "meta_ephemeris_type": 0,
        "meta_classification_type": "U",
        "meta_norad_cat_id": 38022,
        "meta_element_set_no": 999,
        "meta_rev_at_epoch": 69346,
        "meta_bstar": 0.0010847612,
        "meta_mean_motion_dot": 3.57e-05,
        "meta_mean_motion_ddot": 0,
        "tle_line1": "1 38022U 97051YJ  25357.33135154  .00003570  00000+0  10848-2 0  9991",
        "tle_line2": "2 38022  86.2683  11.8042 0045384  16.2864 343.9781 14.41313849693468"
      },
      "geometry": {
        "type": "Point",
        "coordinates": [
          147.8063715132227,
          84.5629627807104
        ]
      }
    },
    {
      "type": "Feature",
      "properties": {
        "norad_id": 38028,
        "name": "IRIDIUM 33 DEB",
        "group": "iridium-33-debris",
        "lat": 85.76832435731829,
        "lon": 114.66914406025985,
        "alt_km": 709.26875097434,
        "timestamp": "2025-12-24T22:42:22.419100+00:00",
        "meta_object_name": "IRIDIUM 33 DEB",
        "meta_object_id": "1997-051YQ",
        "meta_epoch": "2025-12-19T17:44:22.316352",
        "meta_mean_motion": 14.46188799,
        "meta_eccentricity": 0.0030512,
        "meta_inclination": 86.3252,
        "meta_ra_of_asc_node": 357.2262,
        "meta_arg_of_pericenter": 99.065,
        "meta_mean_anomaly": 261.4007,
        "meta_ephemeris_type": 0,
        "meta_classification_type": "U",
        "meta_norad_cat_id": 38028,
        "meta_element_set_no": 999,
        "meta_rev_at_epoch": 65596,
        "meta_bstar": 0.00016660929,
        "meta_mean_motion_dot": 6.2e-06,
        "meta_mean_motion_ddot": 0,
        "tle_line1": "1 38028U 97051YQ  25353.73914718  .00000620  00000+0  16661-3 0  9991",
        "tle_line2": "2 38028  86.3252 357.2262 0030512  99.0650 261.4007 14.46188799655964"
      },
      "geometry": {
        "type": "Point",
        "coordinates": [
          114.66914406025985,
          85.76832435731829
        ]
      }
    },
    {
      "type": "Feature",
      "properties": {
        "norad_id": 38228,
        "name": "IRIDIUM 33 DEB",
        "group": "iridium-33-debris",
        "lat": -82.20356638193694,
        "lon": 15.0223086905765,
        "alt_km": 836.072844456522,
        "timestamp": "2025-12-24T22:42:22.419111+00:00",
        "meta_object_name": "IRIDIUM 33 DEB",
        "meta_object_id": "1997-051ZC",
        "meta_epoch": "2025-12-20T22:20:09.818016",
        "meta_mean_motion": 14.2727844,
        "meta_eccentricity": 0.0065198,
        "meta_inclination": 86.2935,
        "meta_ra_of_asc_node": 44.9869,
        "meta_arg_of_pericenter": 163.0896,
        "meta_mean_anomaly": 14.0405,
        "meta_ephemeris_type": 0,
        "meta_classification_type": "U",
        "meta_norad_cat_id": 38228,
        "meta_element_set_no": 999,
        "meta_rev_at_epoch": 84898,
        "meta_bstar": 0.00020665,
        "meta_mean_motion_dot": 5.36e-06,
        "meta_mean_motion_ddot": 0,
        "tle_line1": "1 38228U 97051ZC  25354.93066919  .00000536  00000+0  20665-3 0  9992",
        "tle_line2": "2 38228  86.2935  44.9869 0065198 163.0896  14.0405 14.27278440848980"
      },
      "geometry": {
        "type": "Point",
        "coordinates": [
          15.0223086905765,
          -82.20356638193694
        ]
      }
    },
    {
      "type": "Feature",
      "properties": {
        "norad_id": 38241,
        "name": "IRIDIUM 33 DEB",
        "group": "iridium-33-debris",
        "lat": -29.951651399552695,
        "lon": -16.910290778214428,
        "alt_km": 714.7023889239526,
        "timestamp": "2025-12-24T22:42:22.419121+00:00",
        "meta_object_name": "IRIDIUM 33 DEB",
        "meta_object_id": "1997-051ZR",
        "meta_epoch": "2025-12-24T06:20:15.708480",
        "meta_mean_motion": 14.54936495,
        "meta_eccentricity": 0.00049857,
        "meta_inclination": 86.3237,
        "meta_ra_of_asc_node": 345.5136,
        "meta_arg_of_pericenter": 47.7465,
        "meta_mean_anomaly": 312.4165,
        "meta_ephemeris_type": 0,
        "meta_classification_type": "U",
        "meta_norad_cat_id": 38241,
        "meta_element_set_no": 999,
        "meta_rev_at_epoch": 60368,
        "meta_bstar": 0.00082076089,
        "meta_mean_motion_dot": 3.549e-05,
        "meta_mean_motion_ddot": 0,
        "tle_line1": "1 38241U 97051ZR  25358.26407070  .00003549  00000+0  82076-3 0  9995",
        "tle_line2": "2 38241  86.3237 345.5136 0004985  47.7465 312.4165 14.54936495603680"
      },
      "geometry": {
        "type": "Point",
        "coordinates": [
          -16.910290778214428,
          -29.951651399552695
        ]
      }
    }
  ]
}